[
  {
    "COMMENT": "GENERATED VIA SPACETRACK.ORG API",
    "ORIGINATOR": "18 SPCS",
    "NORAD_CAT_ID": "36508",
    "OBJECT_NAME": "CRYOSAT 2",
    "OBJECT_TYPE": "PAYLOAD",
    "CLASSIFICATION_TYPE": "U",
    "INTLDES": "10013A",
    "EPOCH": "2023-08-03 04:30:31",
    "EPOCH_MICROSECONDS": "754592",
    "MEAN_MOTION": "14.51909696",
    "ECCENTRICITY": "0.0001654",
    "INCLINATION": "92.0207",
    "RA_OF_ASC_NODE": "23.7253",
    "ARG_OF_PERICENTER": "314.8609",
    "MEAN_ANOMALY": "45.2463",
    "EPHEMERIS_TYPE": "0",
    "ELEMENT_SET_NO": "999",
    "REV_AT_EPOCH": "70591",
    "BSTAR": "0.000086292",
    "MEAN_MOTION_DOT": "0.00000351",
    "MEAN_MOTION_DDOT": "0",
    "FILE": "3970274",
    "TLE_LINE0": "0 CRYOSAT 2",
    "TLE_LINE1": "1 36508U 10013A   23215.18786753  .00000351  00000-0  86292-4 0  9995",
    "TLE_LINE2": "2 36508  92.0207  23.7253 0001654 314.8609  45.2463 14.51909696705919",
    "OBJECT_ID": "2010-013A",
    "OBJECT_NUMBER": "36508",
    "SEMIMAJOR_AXIS": "7097.555",
    "PERIOD": "99.180",
    "APOGEE": "720.594",
    "PERIGEE": "718.246",
    "DECAYED": "0"
  },
  {
    "COMMENT": "GENERATED VIA SPACETRACK.ORG API",
    "ORIGINATOR": "18 SPCS",
    "NORAD_CAT_ID": "36508",
    "OBJECT_NAME": "CRYOSAT 2",
    "OBJECT_TYPE": "PAYLOAD",
    "CLASSIFICATION_TYPE": "U",
    "INTLDES": "10013A",
    "EPOCH": "2023-08-04 10:16:55",
    "EPOCH_MICROSECONDS": "611552",
    "MEAN_MOTION": "14.51910352",
    "ECCENTRICITY": "0.0001544",
    "INCLINATION": "92.0208",
    "RA_OF_ASC_NODE": "24.0244",
    "ARG_OF_PERICENTER": "305.5553",
    "MEAN_ANOMALY": "54.5511",
    "EPHEMERIS_TYPE": "0",
    "ELEMENT_SET_NO": "999",
    "REV_AT_EPOCH": "70609",
    "BSTAR": "0.00007525",
    "MEAN_MOTION_DOT": "0.00000306",
    "MEAN_MOTION_DDOT": "0",
    "FILE": "3971448",
    "TLE_LINE0": "0 CRYOSAT 2",
    "TLE_LINE1": "1 36508U 10013A   23216.42842143  .00000306  00000-0  75250-4 0  9991",
    "TLE_LINE2": "2 36508  92.0208  24.0244 0001544 305.5553  54.5511 14.51910352706095",
    "OBJECT_ID": "2010-013A",
    "OBJECT_NUMBER": "36508",
    "SEMIMAJOR_AXIS": "7097.553",
    "PERIOD": "99.180",
    "APOGEE": "720.514",
    "PERIGEE": "718.322",
    "DECAYED": "0"
  },
  {
    "COMMENT": "GENERATED VIA SPACETRACK.ORG API",
    "ORIGINATOR": "18 SPCS",
    "NORAD_CAT_ID": "36508",
    "OBJECT_NAME": "CRYOSAT 2",
    "OBJECT_TYPE": "PAYLOAD",
    "CLASSIFICATION_TYPE": "U",
    "INTLDES": "10013A",
    "EPOCH": "2023-08-05 11:05:35",
    "EPOCH_MICROSECONDS": "433024",
    "MEAN_MOTION": "14.51911237",
    "ECCENTRICITY": "0.0001467",
    "INCLINATION": "92.021",
    "RA_OF_ASC_NODE": "24.2738",
    "ARG_OF_PERICENTER": "297.0448",
    "MEAN_ANOMALY": "63.0609",
    "EPHEMERIS_TYPE": "0",
    "ELEMENT_SET_NO": "999",
    "REV_AT_EPOCH": "70624",
    "BSTAR": "0.000080134",
    "MEAN_MOTION_DOT": "0.00000326",
    "MEAN_MOTION_DDOT": "0",
    "FILE": "3972308",
    "TLE_LINE0": "0 CRYOSAT 2",
    "TLE_LINE1": "1 36508U 10013A   23217.46221566  .00000326  00000-0  80134-4 0  9995",
    "TLE_LINE2": "2 36508  92.0210  24.2738 0001467 297.0448  63.0609 14.51911237706243",
    "OBJECT_ID": "2010-013A",
    "OBJECT_NUMBER": "36508",
    "SEMIMAJOR_AXIS": "7097.550",
    "PERIOD": "99.180",
    "APOGEE": "720.456",
    "PERIGEE": "718.374",
    "DECAYED": "0"
  },
  {
    "COMMENT": "GENERATED VIA SPACETRACK.ORG API",
    "ORIGINATOR": "18 SPCS",
    "NORAD_CAT_ID": "36508",
    "OBJECT_NAME": "CRYOSAT 2",
    "OBJECT_TYPE": "PAYLOAD",
    "CLASSIFICATION_TYPE": "U",
    "INTLDES": "10013A",
    "EPOCH": "2023-08-06 18:31:13",
    "EPOCH_MICROSECONDS": "836288",
    "MEAN_MOTION": "14.51912024",
    "ECCENTRICITY": "0.0001407",
    "INCLINATION": "92.0212",
    "RA_OF_ASC_NODE": "24.5896",
    "ARG_OF_PERICENTER": "285.3151",
    "MEAN_ANOMALY": "74.7901",
    "EPHEMERIS_TYPE": "0",
    "ELEMENT_SET_NO": "999",
    "REV_AT_EPOCH": "70643",
    "BSTAR": "0.000076489",
    "MEAN_MOTION_DOT": "0.00000311",
    "MEAN_MOTION_DDOT": "0",
    "FILE": "3973518",
    "TLE_LINE0": "0 CRYOSAT 2",
    "TLE_LINE1": "1 36508U 10013A   23218.77168792  .00000311  00000-0  76489-4 0  9993",
    "TLE_LINE2": "2 36508  92.0212  24.5896 0001407 285.3151  74.7901 14.51912024706438",
    "OBJECT_ID": "2010-013A",
    "OBJECT_NUMBER": "36508",
    "SEMIMAJOR_AXIS": "7097.547",
    "PERIOD": "99.180",
    "APOGEE": "720.411",
    "PERIGEE": "718.414",
    "DECAYED": "0"
  },
  {
    "COMMENT": "GENERATED VIA SPACETRACK.ORG API",
    "ORIGINATOR": "18 SPCS",
    "NORAD_CAT_ID": "36508",
    "OBJECT_NAME": "CRYOSAT 2",
    "OBJECT_TYPE": "PAYLOAD",
    "CLASSIFICATION_TYPE": "U",
    "INTLDES": "10013A",
    "EPOCH": "2023-08-07 19:19:53",
    "EPOCH_MICROSECONDS": "592096",
    "MEAN_MOTION": "14.51912647",
    "ECCENTRICITY": "0.0001386",
    "INCLINATION": "92.0213",
    "RA_OF_ASC_NODE": "24.8389",
    "ARG_OF_PERICENTER": "275.5325",
    "MEAN_ANOMALY": "84.5725",
    "EPHEMERIS_TYPE": "0",
    "ELEMENT_SET_NO": "999",
    "REV_AT_EPOCH": "70658",
    "BSTAR": "0.000074368",
    "MEAN_MOTION_DOT": "0.00000303",
    "MEAN_MOTION_DDOT": "0",
    "FILE": "3974409",
    "TLE_LINE0": "0 CRYOSAT 2",
    "TLE_LINE1": "1 36508U 10013A   23219.80548139  .00000303  00000-0  74368-4 0  9990",
    "TLE_LINE2": "2 36508  92.0213  24.8389 0001386 275.5325  84.5725 14.51912647706589",
    "OBJECT_ID": "2010-013A",
    "OBJECT_NUMBER": "36508",
    "SEMIMAJOR_AXIS": "7097.545",
    "PERIOD": "99.180",
    "APOGEE": "720.394",
    "PERIGEE": "718.427",
    "DECAYED": "0"
  },
  {
    "COMMENT": "GENERATED VIA SPACETRACK.ORG API",
    "ORIGINATOR": "18 SPCS",
    "NORAD_CAT_ID": "36508",
    "OBJECT_NAME": "CRYOSAT 2",
    "OBJECT_TYPE": "PAYLOAD",
    "CLASSIFICATION_TYPE": "U",
    "INTLDES": "10013A",
    "EPOCH": "2023-08-09 04:24:46",
    "EPOCH_MICROSECONDS": "545984",
    "MEAN_MOTION": "14.51913422",
    "ECCENTRICITY": "0.0001387",
    "INCLINATION": "92.0214",
    "RA_OF_ASC_NODE": "25.1715",
    "ARG_OF_PERICENTER": "262.5475",
    "MEAN_ANOMALY": "97.5575",
    "EPHEMERIS_TYPE": "0",
    "ELEMENT_SET_NO": "999",
    "REV_AT_EPOCH": "70678",
    "BSTAR": "0.000072158",
    "MEAN_MOTION_DOT": "0.00000294",
    "MEAN_MOTION_DDOT": "0",
    "FILE": "3975615",
    "TLE_LINE0": "0 CRYOSAT 2",
    "TLE_LINE1": "1 36508U 10013A   23221.18387206  .00000294  00000-0  72158-4 0  9994",
    "TLE_LINE2": "2 36508  92.0214  25.1715 0001387 262.5475  97.5575 14.51913422706781",
    "OBJECT_ID": "2010-013A",
    "OBJECT_NUMBER": "36508",
    "SEMIMAJOR_AXIS": "7097.543",
    "PERIOD": "99.179",
    "APOGEE": "720.392",
    "PERIGEE": "718.423",
    "DECAYED": "0"
  },
  {
    "COMMENT": "GENERATED VIA SPACETRACK.ORG API",
    "ORIGINATOR": "18 SPCS",
    "NORAD_CAT_ID": "36508",
    "OBJECT_NAME": "CRYOSAT 2",
    "OBJECT_TYPE": "PAYLOAD",
    "CLASSIFICATION_TYPE": "U",
    "INTLDES": "10013A",
    "EPOCH": "2023-08-10 10:11:10",
    "EPOCH_MICROSECONDS": "154112",
    "MEAN_MOTION": "14.51913914",
    "ECCENTRICITY": "0.0001427",
    "INCLINATION": "92.0215",
    "RA_OF_ASC_NODE": "25.4708",
    "ARG_OF_PERICENTER": "251.3293",
    "MEAN_ANOMALY": "108.7759",
    "EPHEMERIS_TYPE": "0",
    "ELEMENT_SET_NO": "999",
    "REV_AT_EPOCH": "70696",
    "BSTAR": "0.000059194",
    "MEAN_MOTION_DOT": "0.00000241",
    "MEAN_MOTION_DDOT": "0",
    "FILE": "3976863",
    "TLE_LINE0": "0 CRYOSAT 2",
    "TLE_LINE1": "1 36508U 10013A   23222.42442308  .00000241  00000-0  59194-4 0  9994",
    "TLE_LINE2": "2 36508  92.0215  25.4708 0001427 251.3293 108.7759 14.51913914706961",
    "OBJECT_ID": "2010-013A",
    "OBJECT_NUMBER": "36508",
    "SEMIMAJOR_AXIS": "7097.541",
    "PERIOD": "99.179",
    "APOGEE": "720.419",
    "PERIGEE": "718.394",
    "DECAYED": "0"
  },
  {
    "COMMENT": "GENERATED VIA SPACETRACK.ORG API",
    "ORIGINATOR": "18 SPCS",
    "NORAD_CAT_ID": "36508",
    "OBJECT_NAME": "CRYOSAT 2",
    "OBJECT_TYPE": "PAYLOAD",
    "CLASSIFICATION_TYPE": "U",
    "INTLDES": "10013A",
    "EPOCH": "2023-08-11 02:43:37",
    "EPOCH_MICROSECONDS": "50528",
    "MEAN_MOTION": "14.51900009",
    "ECCENTRICITY": "0.0001404",
    "INCLINATION": "92.0217",
    "RA_OF_ASC_NODE": "25.6371",
    "ARG_OF_PERICENTER": "244.2716",
    "MEAN_ANOMALY": "115.8347",
    "EPHEMERIS_TYPE": "0",
    "ELEMENT_SET_NO": "999",
    "REV_AT_EPOCH": "70706",
    "BSTAR": "0.000057197",
    "MEAN_MOTION_DOT": "0.00000233",
    "MEAN_MOTION_DDOT": "0",
    "FILE": "3977442",
    "TLE_LINE0": "0 CRYOSAT 2",
    "TLE_LINE1": "1 36508U 10013A   23223.11362327  .00000233  00000-0  57197-4 0  9995",
    "TLE_LINE2": "2 36508  92.0217  25.6371 0001404 244.2716 115.8347 14.51900009707062",
    "OBJECT_ID": "2010-013A",
    "OBJECT_NUMBER": "36508",
    "SEMIMAJOR_AXIS": "7097.587",
    "PERIOD": "99.180",
    "APOGEE": "720.448",
    "PERIGEE": "718.455",
    "DECAYED": "0"
  },
  {
    "COMMENT": "GENERATED VIA SPACETRACK.ORG API",
    "ORIGINATOR": "18 SPCS",
    "NORAD_CAT_ID": "36508",
    "OBJECT_NAME": "CRYOSAT 2",
    "OBJECT_TYPE": "PAYLOAD",
    "CLASSIFICATION_TYPE": "U",
    "INTLDES": "10013A",
    "EPOCH": "2023-08-12 10:09:16",
    "EPOCH_MICROSECONDS": "346304",
    "MEAN_MOTION": "14.51900787",
    "ECCENTRICITY": "0.0001504",
    "INCLINATION": "92.0217",
    "RA_OF_ASC_NODE": "25.9531",
    "ARG_OF_PERICENTER": "233.471",
    "MEAN_ANOMALY": "126.6358",
    "EPHEMERIS_TYPE": "0",
    "ELEMENT_SET_NO": "999",
    "REV_AT_EPOCH": "70725",
    "BSTAR": "0.000059515",
    "MEAN_MOTION_DOT": "0.00000243",
    "MEAN_MOTION_DDOT": "0",
    "FILE": "3978574",
    "TLE_LINE0": "0 CRYOSAT 2",
    "TLE_LINE1": "1 36508U 10013A   23224.42310586  .00000243  00000-0  59515-4 0  9997",
    "TLE_LINE2": "2 36508  92.0217  25.9531 0001504 233.4710 126.6358 14.51900787707254",
    "OBJECT_ID": "2010-013A",
    "OBJECT_NUMBER": "36508",
    "SEMIMAJOR_AXIS": "7097.584",
    "PERIOD": "99.180",
    "APOGEE": "720.517",
    "PERIGEE": "718.382",
    "DECAYED": "0"
  }
]